NORAD_CAT_ID,OBJECT_NAME,OBJECT_TYPE,EPOCH,MEAN_MOTION,ECCENTRICITY,INCLINATION,RA_OF_ASC_NODE,ARG_OF_PERICENTER,MEAN_ANOMALY,BSTAR,MEAN_MOTION_DOT,MEAN_MOTION_DDOT,TLE_LINE0,TLE_LINE1,TLE_LINE2,SEMIMAJOR_AXIS,PERIOD,APOGEE,PERIGEE,DECAYED
52093.0,STARLINK-3673,PAYLOAD,2023-02-25 01:54:24,15.08836721,0.000115,53.2168,25.8711,108.4776,251.6342,4.4764e-05,4.25e-06,0.0,0 STARLINK-3673,1 52093U 22029F   23056.07944975  .00000425  00000-0  44764-4 0  9995,2 52093  53.2168  25.8711 0001150 108.4776 251.6342 15.08836721 53293,6917.89,95.438,540.551,538.96,0.0
52093.0,STARLINK-3673,PAYLOAD,2023-02-25 08:15:56,15.08842679,0.0001161,53.2168,24.6818,109.5587,250.5531,0.0004177,6.367e-05,0.0,0 STARLINK-3673,1 52093U 22029F   23056.34440971  .00006367  00000-0  41770-3 0  9996,2 52093  53.2168  24.6818 0001161 109.5587 250.5531 15.08842679 53334,6917.872,95.437,540.54,538.934,0.0
52093.0,STARLINK-3673,PAYLOAD,2023-02-26 06:31:20,15.08856408,0.0001177,53.2163,20.519,109.3293,250.7827,0.00085915,0.00013418,0.0,0 STARLINK-3673,1 52093U 22029F   23057.27176913  .00013418  00000-0  85915-3 0  9995,2 52093  53.2163  20.5190 0001177 109.3293 250.7827 15.08856408 53476,6917.83,95.437,540.509,538.881,0.0
52093.0,STARLINK-3673,PAYLOAD,2023-02-27 07:57:30,15.0886136,0.0001772,53.2158,15.7608,84.7536,275.3659,0.00073108,0.00011373,0.0,0 STARLINK-3673,1 52093U 22029F   23058.33160671  .00011373  00000-0  73108-3 0  9996,2 52093  53.2158  15.7608 0001772  84.7536 275.3659 15.08861360 53634,6917.815,95.436,540.906,538.454,0.0
52093.0,STARLINK-3673,PAYLOAD,2023-02-28 06:12:52,15.08890417,0.0001272,53.2163,11.596,93.5814,266.5324,0.00095876,0.00015025,0.0,0 STARLINK-3673,1 52093U 22029F   23059.25894129  .00015025  00000-0  95876-3 0  9994,2 52093  53.2163  11.5960 0001272  93.5814 266.5324 15.08890417 53778,6917.726,95.434,540.471,538.711,0.0
52093.0,STARLINK-3673,PAYLOAD,2023-03-01 02:52:55,15.08791569,0.0001313,53.2165,7.7315,109.1728,250.9406,0.00044403,6.777e-05,0.0,0 STARLINK-3673,1 52093U 22029F   23060.12008917  .00006777  00000-0  44403-3 0  9998,2 52093  53.2165   7.7315 0001313 109.1728 250.9406 15.08791569 53906,6918.028,95.441,540.802,538.985,0.0
52093.0,STARLINK-3673,PAYLOAD,2023-03-01 07:39:04,15.08811001,0.0001363,53.2171,6.8391,106.7524,253.3618,-0.00032592,-5.467e-05,0.0,0 STARLINK-3673,1 52093U 22029F   23060.31880678 -.00005467  00000-0 -32592-3 0  9994,2 52093  53.2171   6.8391 0001363 106.7524 253.3618 15.08811001 53938,6917.969,95.439,540.777,538.891,0.0
52093.0,STARLINK-3673,PAYLOAD,2023-03-02 02:43:43,15.08842164,0.0001433,53.2166,3.2706,111.2862,248.8284,0.0010586,0.00016601,0.0,0 STARLINK-3673,1 52093U 22029F   23061.11369539  .00016601  00000-0  10586-2 0  9999,2 52093  53.2166   3.2706 0001433 111.2862 248.8284 15.08842164 54053,6917.874,95.437,540.73,538.747,0.0
52093.0,STARLINK-3673,PAYLOAD,2023-03-02 05:54:29,15.08850117,0.0001654,53.2164,2.6738,111.6769,248.4399,0.0010915,0.00017131,0.0,0 STARLINK-3673,1 52093U 22029F   23061.24617327  .00017131  00000-0  10915-2 0  9999,2 52093  53.2164   2.6738 0001654 111.6769 248.4399 15.08850117 54076,6917.849,95.437,540.859,538.57,0.0
52093.0,STARLINK-3673,PAYLOAD,2023-03-03 05:45:16,15.08882749,0.0001237,53.2169,358.2163,92.9369,267.1765,0.0028055,0.00044697,0.0,0 STARLINK-3673,1 52093U 22029F   23062.23976986  .00044697  00000-0  28055-2 0  9999,2 52093  53.2169 358.2163 0001237  92.9369 267.1765 15.08882749 54225,6917.75,95.435,540.47,538.759,0.0
52093.0,STARLINK-3673,PAYLOAD,2023-03-03 18:28:19,15.08898539,0.0001347,53.2172,355.8367,92.7648,267.3499,0.0018223,0.0002888,0.0,0 STARLINK-3673,1 52093U 22029F   23062.76967551  .00028880  00000-0  18223-2 0  9997,2 52093  53.2172 355.8367 0001347  92.7648 267.3499 15.08898539 54307,6917.701,95.434,540.498,538.635,0.0
52093.0,STARLINK-3673,PAYLOAD,2023-03-03 20:03:42,15.08899094,0.0001338,53.2173,355.5397,94.1515,265.963,0.0016202,0.00025633,0.0,0 STARLINK-3673,1 52093U 22029F   23062.83591322  .00025633  00000-0  16202-2 0  9992,2 52093  53.2173 355.5397 0001338  94.1515 265.9630 15.08899094 54316,6917.7,95.434,540.49,538.639,0.0
52093.0,STARLINK-3673,PAYLOAD,2023-03-04 04:00:40,15.08813139,0.0001047,53.2168,354.0528,76.1936,283.9172,-0.00066164,-0.00010794,0.0,0 STARLINK-3673,1 52093U 22029F   23063.16713136 -.00010794  00000-0 -66164-3 0  9995,2 52093  53.2168 354.0528 0001047  76.1936 283.9172 15.08813139 54366,6917.962,95.439,540.552,539.103,0.0
52093.0,STARLINK-3673,PAYLOAD,2023-03-05 02:16:04,15.08843245,0.0001278,53.2169,349.8899,83.0876,277.0262,0.0015687,0.00024768,0.0,0 STARLINK-3673,1 52093U 22029F   23064.09450160  .00024768  00000-0  15687-2 0  9990,2 52093  53.2169 349.8899 0001278  83.0876 277.0262 15.08843245 54507,6917.87,95.437,540.62,538.851,0.0
52093.0,STARLINK-3673,PAYLOAD,2023-03-05 03:51:28,15.08858261,0.0001363,53.2169,349.5931,81.0179,279.0967,0.0024901,0.00039585,0.0,0 STARLINK-3673,1 52093U 22029F   23064.16074166  .00039585  00000-0  24901-2 0  9998,2 52093  53.2169 349.5931 0001363  81.0179 279.0967 15.08858261 54519,6917.825,95.436,540.632,538.747,0.0
52093.0,STARLINK-3673,PAYLOAD,2023-03-06 02:06:51,15.08866752,0.0001747,53.2174,345.4286,71.1459,288.9723,0.0013859,0.00021854,0.0,0 STARLINK-3673,1 52093U 22029F   23065.08809868  .00021854  00000-0  13859-2 0  9995,2 52093  53.2174 345.4286 0001747  71.1459 288.9723 15.08866752 54658,6917.799,95.436,540.872,538.455,0.0
52093.0,STARLINK-3673,PAYLOAD,2023-03-06 05:17:37,15.08883021,0.000176,53.2171,344.8337,68.4905,291.6275,0.0019265,0.00030542,0.0,0 STARLINK-3673,1 52093U 22029F   23065.22057482  .00030542  00000-0  19265-2 0  9999,2 52093  53.2171 344.8337 0001760  68.4905 291.6275 15.08883021 54678,6917.749,95.435,540.831,538.396,0.0
52093.0,STARLINK-3673,PAYLOAD,2023-03-07 03:33:01,15.08859061,9.56e-05,53.2168,340.6707,89.6926,270.4176,0.0020016,0.00031728,0.0,0 STARLINK-3673,1 52093U 22029F   23066.14793601  .00031728  00000-0  20016-2 0  9994,2 52093  53.2168 340.6707 0000956  89.6926 270.4176 15.08859061 54811,6917.822,95.436,540.348,539.026,0.0
52093.0,STARLINK-3673,PAYLOAD,2023-03-07 17:51:30,15.08851753,0.0001259,53.2153,337.9957,80.3615,279.752,0.0018163,0.00028746,0.0,0 STARLINK-3673,1 52093U 22029F   23066.74410162  .00028746  00000-0  18163-2 0  9994,2 52093  53.2153 337.9957 0001259  80.3615 279.7520 15.08851753 54906,6917.844,95.437,540.58,538.839,0.0
52093.0,STARLINK-3673,PAYLOAD,2023-03-08 17:42:17,15.08855412,0.0001104,53.2156,333.5355,65.0749,295.0357,0.0016306,0.00025769,0.0,0 STARLINK-3673,1 52093U 22029F   23067.73770372  .00025769  00000-0  16306-2 0  9995,2 52093  53.2156 333.5355 0001104  65.0749 295.0357 15.08855412 55052,6917.833,95.437,540.462,538.935,0.0
52093.0,STARLINK-3673,PAYLOAD,2023-03-09 22:19:13,15.08874676,0.0001039,53.216,328.183,87.0438,273.0673,0.0019554,0.00030999,0.0,0 STARLINK-3673,1 52093U 22029F   23068.93002011  .00030999  00000-0  19554-2 0  9995,2 52093  53.2160 328.1830 0001039  87.0438 273.0673 15.08874676 55231,6917.774,95.435,540.358,538.921,0.0
52093.0,STARLINK-3673,PAYLOAD,2023-03-09 23:54:36,15.08885028,0.0001049,53.2157,327.8854,85.5067,274.6045,0.0022986,0.00036529,0.0,0 STARLINK-3673,1 52093U 22029F   23068.99625806  .00036529  00000-0  22986-2 0  9992,2 52093  53.2157 327.8854 0001049  85.5067 274.6045 15.08885028 55245,6917.743,95.435,540.333,538.882,0.0
52093.0,STARLINK-3673,PAYLOAD,2023-03-10 17:23:52,15.08833721,0.0001448,53.2157,324.6144,111.3192,248.7955,0.0014215,0.00022404,0.0,0 STARLINK-3673,1 52093U 22029F   23069.72490746  .00022404  00000-0  14215-2 0  9990,2 52093  53.2157 324.6144 0001448 111.3192 248.7955 15.08833721 55359,6917.9,95.438,540.766,538.763,0.0
52093.0,STARLINK-3673,PAYLOAD,2023-03-10 22:10:01,15.088269,0.0001286,53.2154,323.7214,120.29,239.8219,0.0006969,0.00010817,0.0,0 STARLINK-3673,1 52093U 22029F   23069.92362895  .00010817  00000-0  69690-3 0  9998,2 52093  53.2154 323.7214 0001286 120.2900 239.8219 15.08826900 55388,6917.92,95.438,540.675,538.896,0.0
52093.0,STARLINK-3673,PAYLOAD,2023-03-11 01:20:47,15.08839256,0.0001071,53.2165,323.1283,96.4361,263.6753,0.00021015,3.058e-05,0.0,0 STARLINK-3673,1 52093U 22029F   23070.05610578  .00003058  00000-0  21015-3 0  9996,2 52093  53.2165 323.1283 0001071  96.4361 263.6753 15.08839256 55406,6917.883,95.438,540.489,539.007,0.0
52093.0,STARLINK-3673,PAYLOAD,2023-03-12 02:46:57,15.08849439,0.0001057,53.2158,318.3683,92.1999,267.9114,0.00058598,9.053e-05,0.0,0 STARLINK-3673,1 52093U 22029F   23071.11594756  .00009053  00000-0  58598-3 0  9990,2 52093  53.2158 318.3683 0001057  92.1999 267.9114 15.08849439 55561,6917.852,95.437,540.448,538.985,0.0
52093.0,STARLINK-3673,PAYLOAD,2023-03-13 01:02:21,15.08851137,0.0001599,53.2154,314.2049,84.1655,275.952,0.0003065,4.595e-05,0.0,0 STARLINK-3673,1 52093U 22029F   23072.04330613  .00004595  00000-0  30650-3 0  9998,2 52093  53.2154 314.2049 0001599  84.1655 275.9520 15.08851137 55703,6917.846,95.437,540.818,538.605,0.0
52093.0,STARLINK-3673,PAYLOAD,2023-03-13 21:42:22,15.08830347,9.98e-05,53.2148,310.3391,105.8304,254.2798,-0.0001863,-3.251e-05,0.0,0 STARLINK-3673,1 52093U 22029F   23072.90443225 -.00003251  00000-0 -18630-3 0  9991,2 52093  53.2148 310.3391 0000998 105.8304 254.2798 15.08830347 55838,6917.91,95.438,540.465,539.084,0.0
52093.0,STARLINK-3673,PAYLOAD,2023-03-14 00:53:09,15.08833457,0.0001208,53.2151,309.7439,101.4463,258.6665,-0.00011329,-2.09e-05,0.0,0 STARLINK-3673,1 52093U 22029F   23073.03691356 -.00002090  00000-0 -11329-3 0  9994,2 52093  53.2151 309.7439 0001208 101.4463 258.6665 15.08833457 55858,6917.9,95.438,540.601,538.93,0.0
52093.0,STARLINK-3673,PAYLOAD,2023-03-14 08:50:05,15.0883653,0.0001282,53.2162,308.2556,97.3033,262.8105,3.1559e-05,2.14e-06,0.0,0 STARLINK-3673,1 52093U 22029F   23073.36811560  .00000214  00000-0  31559-4 0  9993,2 52093  53.2162 308.2556 0001282  97.3033 262.8105 15.08836530 55909,6917.891,95.438,540.643,538.869,0.0
